{
  "type": "FeatureCollection",
  "features": [
    {
      "type": "Feature",
      "properties": {
        "norad_id": 49809,
        "name": "GSAT0223 (GALILEO 27)",
        "group": "gnss",
        "lat": 54.21575357748193,
        "lon": 49.73738990177866,
        "alt_km": 23228.79059189332,
        "timestamp": "2025-12-25T11:37:44.679233+00:00",
        "meta_object_name": "GSAT0223 (GALILEO 27)",
        "meta_object_id": "2021-116A",
        "meta_epoch": "2025-12-22T17:26:14.878176",
        "meta_mean_motion": 1.70475871,
        "meta_eccentricity": 0.000441,
        "meta_inclination": 57.2174,
        "meta_ra_of_asc_node": 346.4438,
        "meta_arg_of_pericenter": 255.815,
        "meta_mean_anomaly": 286.3499,
        "meta_ephemeris_type": 0,
        "meta_classification_type": "U",
        "meta_norad_cat_id": 49809,
        "meta_element_set_no": 999,
        "meta_rev_at_epoch": 2517,
        "meta_bstar": 0,
        "meta_mean_motion_dot": -6.4e-07,
        "meta_mean_motion_ddot": 0,
        "tle_line1": "1 49809U 21116A   25356.72656109 -.00000064  00000+0  00000+0 0  9997",
        "tle_line2": "2 49809  57.2174 346.4438 0004410 255.8150 286.3499  1.70475871 25171"
      },
      "geometry": {
        "type": "Point",
        "coordinates": [
          49.73738990177866,
          54.21575357748193
        ]
      }
    },
    {
      "type": "Feature",
      "properties": {
        "norad_id": 49810,
        "name": "GSAT0224 (GALILEO 28)",
        "group": "gnss",
        "lat": -6.210169918499556,
        "lon": 170.377428332665,
        "alt_km": 23219.92753354987,
        "timestamp": "2025-12-25T11:37:44.679244+00:00",
        "meta_object_name": "GSAT0224 (GALILEO 28)",
        "meta_object_id": "2021-116B",
        "meta_epoch": "2025-12-23T03:00:59.528736",
        "meta_mean_motion": 1.70475912,
        "meta_eccentricity": 0.00037519,
        "meta_inclination": 57.2181,
        "meta_ra_of_asc_node": 346.4317,
        "meta_arg_of_pericenter": 260.8078,
        "meta_mean_anomaly": 278.9053,
        "meta_ephemeris_type": 0,
        "meta_classification_type": "U",
        "meta_norad_cat_id": 49810,
        "meta_element_set_no": 999,
        "meta_rev_at_epoch": 2520,
        "meta_bstar": 0,
        "meta_mean_motion_dot": -6.3e-07,
        "meta_mean_motion_ddot": 0,
        "tle_line1": "1 49810U 21116B   25357.12568899 -.00000063  00000+0  00000+0 0  9991",
        "tle_line2": "2 49810  57.2181 346.4317 0003751 260.8078 278.9053  1.70475912 25202"
      },
      "geometry": {
        "type": "Point",
        "coordinates": [
          170.377428332665,
          -6.210169918499556
        ]
      }
    },
    {
      "type": "Feature",
      "properties": {
        "norad_id": 52984,
        "name": "COSMOS 2557 (706K)",
        "group": "gnss",
        "lat": 1.4540429215352597,
        "lon": -38.71410357110866,
        "alt_km": 19126.038456979477,
        "timestamp": "2025-12-25T11:37:44.679255+00:00",
        "meta_object_name": "COSMOS 2557 (706K)",
        "meta_object_id": "2022-075A",
        "meta_epoch": "2025-12-25T00:18:58.965408",
        "meta_mean_motion": 2.13102032,
        "meta_eccentricity": 0.0013542,
        "meta_inclination": 64.4029,
        "meta_ra_of_asc_node": 320.6204,
        "meta_arg_of_pericenter": 278.4841,
        "meta_mean_anomaly": 81.3651,
        "meta_ephemeris_type": 0,
        "meta_classification_type": "U",
        "meta_norad_cat_id": 52984,
        "meta_element_set_no": 999,
        "meta_rev_at_epoch": 2700,
        "meta_bstar": 0,
        "meta_mean_motion_dot": -3.4e-07,
        "meta_mean_motion_ddot": 0,
        "tle_line1": "1 52984U 22075A   25359.01318247 -.00000034  00000+0  00000+0 0  9990",
        "tle_line2": "2 52984  64.4029 320.6204 0013542 278.4841  81.3651  2.13102032 27008"
      },
      "geometry": {
        "type": "Point",
        "coordinates": [
          -38.71410357110866,
          1.4540429215352597
        ]
      }
    },
    {
      "type": "Feature",
      "properties": {
        "norad_id": 54031,
        "name": "COSMOS 2559 (707K)",
        "group": "gnss",
        "lat": 35.227910750914766,
        "lon": 120.88109543676575,
        "alt_km": 19107.583370643795,
        "timestamp": "2025-12-25T11:37:44.679269+00:00",
        "meta_object_name": "COSMOS 2559 (707K)",
        "meta_object_id": "2022-130A",
        "meta_epoch": "2025-12-22T22:55:41.357856",
        "meta_mean_motion": 2.13101293,
        "meta_eccentricity": 0.00115202,
        "meta_inclination": 64.3764,
        "meta_ra_of_asc_node": 320.7818,
        "meta_arg_of_pericenter": 191.7582,
        "meta_mean_anomaly": 168.2129,
        "meta_ephemeris_type": 0,
        "meta_classification_type": "U",
        "meta_norad_cat_id": 54031,
        "meta_element_set_no": 999,
        "meta_rev_at_epoch": 2493,
        "meta_bstar": 0,
        "meta_mean_motion_dot": -4e-07,
        "meta_mean_motion_ddot": 0,
        "tle_line1": "1 54031U 22130A   25356.95533979 -.00000040  00000+0  00000+0 0  9995",
        "tle_line2": "2 54031  64.3764 320.7818 0011520 191.7582 168.2129  2.13101293 24935"
      },
      "geometry": {
        "type": "Point",
        "coordinates": [
          120.88109543676575,
          35.227910750914766
        ]
      }
    },
    {
      "type": "Feature",
      "properties": {
        "norad_id": 54377,
        "name": "COSMOS 2564 (761)",
        "group": "gnss",
        "lat": -62.92179925415221,
        "lon": 85.99548393756665,
        "alt_km": 19124.27536260353,
        "timestamp": "2025-12-25T11:37:44.679280+00:00",
        "meta_object_name": "COSMOS 2564 (761)",
        "meta_object_id": "2022-161A",
        "meta_epoch": "2025-12-22T19:11:15.319968",
        "meta_mean_motion": 2.13102038,
        "meta_eccentricity": 0.00085475,
        "meta_inclination": 64.7388,
        "meta_ra_of_asc_node": 198.5646,
        "meta_arg_of_pericenter": 203.7096,
        "meta_mean_anomaly": 156.316,
        "meta_ephemeris_type": 0,
        "meta_classification_type": "U",
        "meta_norad_cat_id": 54377,
        "meta_element_set_no": 999,
        "meta_rev_at_epoch": 2387,
        "meta_bstar": 0,
        "meta_mean_motion_dot": 9.5e-07,
        "meta_mean_motion_ddot": 0,
        "tle_line1": "1 54377U 22161A   25356.79948287  .00000095  00000+0  00000+0 0  9995",
        "tle_line2": "2 54377  64.7388 198.5646 0008547 203.7096 156.3160  2.13102038 23876"
      },
      "geometry": {
        "type": "Point",
        "coordinates": [
          85.99548393756665,
          -62.92179925415221
        ]
      }
    },
    {
      "type": "Feature",
      "properties": {
        "norad_id": 55268,
        "name": "GPS BIII-6  (PRN 28)",
        "group": "gnss",
        "lat": 20.48337618012538,
        "lon": 170.44670196750397,
        "alt_km": 20171.988833796044,
        "timestamp": "2025-12-25T11:37:44.679292+00:00",
        "meta_object_name": "GPS BIII-6  (PRN 28)",
        "meta_object_id": "2023-009A",
        "meta_epoch": "2025-12-22T10:59:58.065216",
        "meta_mean_motion": 2.00554901,
        "meta_eccentricity": 0.00037047,
        "meta_inclination": 55.1065,
        "meta_ra_of_asc_node": 155.4638,
        "meta_arg_of_pericenter": 355.7912,
        "meta_mean_anomaly": 4.4255,
        "meta_ephemeris_type": 0,
        "meta_classification_type": "U",
        "meta_norad_cat_id": 55268,
        "meta_element_set_no": 999,
        "meta_rev_at_epoch": 2170,
        "meta_bstar": 0,
        "meta_mean_motion_dot": 7.4e-07,
        "meta_mean_motion_ddot": 0,
        "tle_line1": "1 55268U 23009A   25356.45831094  .00000074  00000+0  00000+0 0  9994",
        "tle_line2": "2 55268  55.1065 155.4638 0003704 355.7912   4.4255  2.00554901 21704"
      },
      "geometry": {
        "type": "Point",
        "coordinates": [
          170.44670196750397,
          20.48337618012538
        ]
      }
    },
    {
      "type": "Feature",
      "properties": {
        "norad_id": 56564,
        "name": "BEIDOU-3 G4 (C62)",
        "group": "gnss",
        "lat": 0.657516273364812,
        "lon": 68.6991218564931,
        "alt_km": 35788.01417397721,
        "timestamp": "2025-12-25T11:37:44.679306+00:00",
        "meta_object_name": "BEIDOU-3 G4 (C62)",
        "meta_object_id": "2023-066A",
        "meta_epoch": "2025-12-25T04:17:38.775264",
        "meta_mean_motion": 1.00270858,
        "meta_eccentricity": 0.0002568,
        "meta_inclination": 0.7893,
        "meta_ra_of_asc_node": 303.0124,
        "meta_arg_of_pericenter": 225.1679,
        "meta_mean_anomaly": 150.2284,
        "meta_ephemeris_type": 0,
        "meta_classification_type": "U",
        "meta_norad_cat_id": 56564,
        "meta_element_set_no": 999,
        "meta_rev_at_epoch": 965,
        "meta_bstar": 0,
        "meta_mean_motion_dot": -9e-07,
        "meta_mean_motion_ddot": 0,
        "tle_line1": "1 56564U 23066A   25359.17892101 -.00000090  00000+0  00000+0 0  9994",
        "tle_line2": "2 56564   0.7893 303.0124 0002568 225.1679 150.2284  1.00270858  9654"
      },
      "geometry": {
        "type": "Point",
        "coordinates": [
          68.6991218564931,
          0.657516273364812
        ]
      }
    }
  ]
}